NORAD_CAT_ID,OBJECT_NAME,OBJECT_TYPE,EPOCH,MEAN_MOTION,ECCENTRICITY,INCLINATION,RA_OF_ASC_NODE,ARG_OF_PERICENTER,MEAN_ANOMALY,BSTAR,MEAN_MOTION_DOT,MEAN_MOTION_DDOT,TLE_LINE0,TLE_LINE1,TLE_LINE2,SEMIMAJOR_AXIS,PERIOD,APOGEE,PERIGEE,DECAYED
55677.0,STARLINK-5324,PAYLOAD,2023-08-26 15:53:02,15.69921324,0.0003107,69.9975,336.0264,266.5502,93.5338,4.0887e-06,2.79e-06,0.0,0 STARLINK-5324,1 55677U 23021BB  23238.66183783  .00000279  00000-0  40887-5 0  9998,2 55677  69.9975 336.0264 0003107 266.5502  93.5338 15.69921324 30341,6737.259,91.724,361.217,357.031,0.0
55677.0,STARLINK-5324,PAYLOAD,2023-08-27 10:14:04,15.69923872,0.0003252,69.9975,333.8772,271.9504,88.1319,1.5399e-05,1.639e-05,0.0,0 STARLINK-5324,1 55677U 23021BB  23239.42643655  .00001639  00000-0  15399-4 0  9992,2 55677  69.9975 333.8772 0003252 271.9504  88.1319 15.69923872 30779,6737.252,91.724,361.308,356.926,0.0
55677.0,STARLINK-5324,PAYLOAD,2023-08-27 16:21:04,15.69927516,0.0003001,70.0004,333.1631,272.9806,87.1046,2.1337e-05,2.354e-05,0.0,0 STARLINK-5324,1 55677U 23021BB  23239.68129881  .00002354  00000-0  21337-4 0  9994,2 55677  70.0004 333.1631 0003001 272.9806  87.1046 15.69927516 30506,6737.241,91.724,361.128,357.085,0.0
55677.0,STARLINK-5324,PAYLOAD,2023-08-28 09:10:20,15.6992333,0.0002812,70.0008,331.193,261.7205,98.3672,-1.4715e-05,-1.981e-05,0.0,0 STARLINK-5324,1 55677U 23021BB  23240.38218713 -.00001981  00000-0 -14715-4 0  9995,2 55677  70.0008 331.1930 0002812 261.7205  98.3672 15.69923330 30619,6737.253,91.724,361.013,357.224,0.0
55677.0,STARLINK-5324,PAYLOAD,2023-08-28 16:49:06,15.69931986,0.0002788,69.9982,330.2969,259.097,100.9912,-4.8697e-06,-7.98e-06,0.0,0 STARLINK-5324,1 55677U 23021BB  23240.70076820 -.00000798  00000-0 -48697-5 0  9994,2 55677  69.9982 330.2969 0002788 259.0970 100.9912 15.69931986 30972,6737.229,91.724,360.972,357.215,0.0
55677.0,STARLINK-5324,PAYLOAD,2023-08-29 15:45:23,15.69925573,0.0003044,69.9977,327.6094,264.9151,95.1697,3.9761e-06,2.66e-06,0.0,0 STARLINK-5324,1 55677U 23021BB  23241.65652269  .00000266  00000-0  39761-5 0  9996,2 55677  69.9977 327.6094 0003044 264.9151  95.1697 15.69925573 30810,6737.247,91.724,361.163,357.061,0.0
55677.0,STARLINK-5324,PAYLOAD,2023-08-30 13:09:55,15.69914203,0.0002706,69.9982,325.1002,265.8396,94.2491,1.0418e-05,1.04e-05,0.0,0 STARLINK-5324,1 55677U 23021BB  23242.54856304  .00001040  00000-0  10418-4 0  9999,2 55677  69.9982 325.1002 0002706 265.8396  94.2491 15.69914203 30958,6737.279,91.725,360.968,357.321,0.0
55677.0,STARLINK-5324,PAYLOAD,2023-08-31 04:27:26,15.69929257,0.0002573,69.9971,323.3083,263.9767,96.1135,5.7847e-06,4.83e-06,0.0,0 STARLINK-5324,1 55677U 23021BB  23243.18572269  .00000483  00000-0  57847-5 0  9993,2 55677  69.9971 323.3083 0002573 263.9767  96.1135 15.69929257 31051,6737.236,91.724,360.835,357.368,0.0
55677.0,STARLINK-5324,PAYLOAD,2023-09-01 04:55:28,15.69924248,0.0003072,69.9972,320.4417,266.5319,93.5525,6.7881e-06,6.04e-06,0.0,0 STARLINK-5324,1 55677U 23021BB  23244.20519301  .00000604  00000-0  67881-5 0  9999,2 55677  69.9972 320.4417 0003072 266.5319  93.5525 15.69924248 31215,6737.251,91.724,361.185,357.046,0.0
55677.0,STARLINK-5324,PAYLOAD,2023-09-02 13:02:16,15.69926904,0.0002911,69.9993,316.6814,260.1906,99.8961,8.6852e-06,8.32e-06,0.0,0 STARLINK-5324,1 55677U 23021BB  23245.54324199  .00000832  00000-0  86852-5 0  9998,2 55677  69.9993 316.6814 0002911 260.1906  99.8961 15.69926904 31730,6737.243,91.724,361.069,357.147,0.0
55677.0,STARLINK-5324,PAYLOAD,2023-09-02 14:34:01,15.69925686,0.0003327,69.9981,316.5006,265.163,94.9186,1.3816e-05,1.449e-05,0.0,0 STARLINK-5324,1 55677U 23021BB  23245.60695893  .00001449  00000-0  13816-4 0  9991,2 55677  69.9981 316.5006 0003327 265.1630  94.9186 15.69925686 31438,6737.247,91.724,361.353,356.87,0.0
55677.0,STARLINK-5324,PAYLOAD,2023-09-02 22:12:45,15.69940582,0.000379,69.9964,315.6035,267.3543,92.7219,3.6856e-05,4.224e-05,0.0,0 STARLINK-5324,1 55677U 23021BB  23245.92552774  .00004224  00000-0  36856-4 0  9999,2 55677  69.9964 315.6035 0003790 267.3543  92.7219 15.69940582 31482,6737.204,91.723,361.622,356.516,0.0
55677.0,STARLINK-5324,PAYLOAD,2023-09-03 05:51:33,15.69913911,0.0003555,69.9974,314.7079,272.934,87.1449,1.9969e-06,2.7e-07,0.0,0 STARLINK-5324,1 55677U 23021BB  23246.24413470  .00000027  00000-0  19969-5 0  9998,2 55677  69.9974 314.7079 0003555 272.9340  87.1449 15.69913911 31532,6737.28,91.725,361.54,356.75,0.0
55677.0,STARLINK-5324,PAYLOAD,2023-09-03 07:23:18,15.69912095,0.0003799,69.9986,314.5293,276.2378,83.8385,-1.2525e-05,-1.718e-05,0.0,0 STARLINK-5324,1 55677U 23021BB  23246.30784834 -.00001718  00000-0 -12525-4 0  9990,2 55677  69.9986 314.5293 0003799 276.2378  83.8385 15.69912095 31858,6737.285,91.725,361.71,356.591,0.0
55677.0,STARLINK-5324,PAYLOAD,2023-09-04 04:47:49,15.6992447,0.0003666,69.9978,312.0204,274.225,85.8526,-3.4673e-06,-6.3e-06,0.0,0 STARLINK-5324,1 55677U 23021BB  23247.19987814 -.00000630  00000-0 -34673-5 0  9992,2 55677  69.9978 312.0204 0003666 274.2250  85.8526 15.69924470 31684,6737.25,91.724,361.585,356.645,0.0
55677.0,STARLINK-5324,PAYLOAD,2023-09-04 06:19:34,15.69924002,0.0003708,69.9977,311.8409,273.6858,86.3914,-4.5264e-06,-7.57e-06,0.0,0 STARLINK-5324,1 55677U 23021BB  23247.26359501 -.00000757  00000-0 -45264-5 0  9994,2 55677  69.9977 311.8409 0003708 273.6858  86.3914 15.69924002 32006,6737.251,91.724,361.615,356.618,0.0
55677.0,STARLINK-5324,PAYLOAD,2023-09-05 03:44:06,15.69922978,0.0003118,70.0001,309.3341,270.2409,89.8429,1.1623e-05,1.185e-05,0.0,0 STARLINK-5324,1 55677U 23021BB  23248.15563152  .00001185  00000-0  11623-4 0  9997,2 55677  70.0001 309.3341 0003118 270.2409  89.8429 15.69922978 32148,6737.254,91.724,361.22,357.019,0.0
55677.0,STARLINK-5324,PAYLOAD,2023-09-06 02:40:22,15.69929147,0.0003149,70.0005,306.6483,270.2563,89.8271,3.6104e-05,4.131e-05,0.0,0 STARLINK-5324,1 55677U 23021BB  23249.11137698  .00004131  00000-0  36104-4 0  9991,2 55677  70.0005 306.6483 0003149 270.2563  89.8271 15.69929147 31985,6737.237,91.724,361.223,356.98,0.0
55677.0,STARLINK-5324,PAYLOAD,2023-09-06 04:12:08,15.69928774,0.0003422,70.0,306.4677,270.7528,89.3275,2.4233e-05,2.703e-05,0.0,0 STARLINK-5324,1 55677U 23021BB  23249.17509400  .00002703  00000-0  24233-4 0  9994,2 55677  70.0000 306.4677 0003422 270.7528  89.3275 15.69928774 32304,6737.238,91.724,361.408,356.797,0.0
55677.0,STARLINK-5324,PAYLOAD,2023-09-07 06:11:55,15.69926049,0.000386,70.0009,303.4242,272.7407,87.3347,7.6985e-06,7.13e-06,0.0,0 STARLINK-5324,1 55677U 23021BB  23250.25827984  .00000713  00000-0  76985-5 0  9996,2 55677  70.0009 303.4242 0003860 272.7407  87.3347 15.69926049 32167,6737.246,91.724,361.711,356.51,0.0
55677.0,STARLINK-5324,PAYLOAD,2023-09-08 06:39:58,15.69906083,0.0002534,70.0016,300.5583,258.1579,101.9333,-1.2925e-05,-1.765e-05,0.0,0 STARLINK-5324,1 55677U 23021BB  23251.27775641 -.00001765  00000-0 -12925-4 0  9994,2 55677  70.0016 300.5583 0002534 258.1579 101.9333 15.69906083 32328,6737.303,91.725,360.875,357.46,0.0
55677.0,STARLINK-5324,PAYLOAD,2023-09-08 12:46:58,15.69914758,0.0002778,70.0016,299.8417,269.1942,90.8935,3.3709e-06,1.93e-06,0.0,0 STARLINK-5324,1 55677U 23021BB  23251.53262303  .00000193  00000-0  33709-5 0  9995,2 55677  70.0016 299.8417 0002778 269.1942  90.8935 15.69914758 32670,6737.278,91.725,361.014,357.271,0.0
55677.0,STARLINK-5324,PAYLOAD,2023-09-09 02:32:43,15.69931008,0.0003387,70.0001,298.2279,268.6748,91.406,1.7785e-05,1.927e-05,0.0,0 STARLINK-5324,1 55677U 23021BB  23252.10606385  .00001927  00000-0  17785-4 0  9992,2 55677  70.0001 298.2279 0003387 268.6748  91.4060 15.69931008 32457,6737.231,91.724,361.378,356.814,0.0
55677.0,STARLINK-5324,PAYLOAD,2023-09-09 13:15:00,15.6992538,0.0003613,69.9989,296.9738,270.6783,89.3999,1.218e-05,1.252e-05,0.0,0 STARLINK-5324,1 55677U 23021BB  23252.55208369  .00001252  00000-0  12180-4 0  9996,2 55677  69.9989 296.9738 0003613 270.6783  89.3999 15.69925380 32833,6737.247,91.724,361.547,356.678,0.0
55677.0,STARLINK-5324,PAYLOAD,2023-09-10 10:39:32,15.69911232,0.0003009,69.9977,294.4684,258.2533,101.8326,7.8197e-06,7.27e-06,0.0,0 STARLINK-5324,1 55677U 23021BB  23253.44413045  .00000727  00000-0  78197-5 0  9991,2 55677  69.9977 294.4684 0003009 258.2533 101.8326 15.69911232 32663,6737.288,91.725,361.18,357.126,0.0
55677.0,STARLINK-5324,PAYLOAD,2023-09-10 12:11:17,15.69914461,0.0002887,69.9999,294.2895,255.4925,104.595,1.5232e-06,-2.9e-07,0.0,0 STARLINK-5324,1 55677U 23021BB  23253.50784225 -.00000029  00000-0  15232-5 0  9996,2 55677  69.9999 294.2895 0002887 255.4925 104.5950 15.69914461 32981,6737.279,91.725,361.089,357.199,0.0
55677.0,STARLINK-5324,PAYLOAD,2023-09-11 01:57:02,15.69930017,0.0003276,69.9991,292.6749,268.126,91.956,1.0572e-05,1.059e-05,0.0,0 STARLINK-5324,1 55677U 23021BB  23254.08128412  .00001059  00000-0  10572-4 0  9994,2 55677  69.9991 292.6749 0003276 268.1260  91.9560 15.69930017 32766,6737.234,91.724,361.306,356.892,0.0
55677.0,STARLINK-5324,PAYLOAD,2023-09-11 12:39:18,15.69930201,0.0003171,69.9982,291.4181,264.4282,95.6552,1.4517e-05,1.534e-05,0.0,0 STARLINK-5324,1 55677U 23021BB  23254.52729996  .00001534  00000-0  14517-4 0  9998,2 55677  69.9982 291.4181 0003171 264.4282  95.6552 15.69930201 33140,6737.234,91.724,361.235,356.962,0.0
55677.0,STARLINK-5324,PAYLOAD,2023-09-12 02:25:04,15.69930249,0.0003152,69.9983,289.8063,265.7912,94.2923,2.0622e-05,2.268e-05,0.0,0 STARLINK-5324,1 55677U 23021BB  23255.10075054  .00002268  00000-0  20622-4 0  9991,2 55677  69.9983 289.8063 0003152 265.7912  94.2923 15.69930249 32928,6737.234,91.724,361.222,356.975,0.0
55677.0,STARLINK-5324,PAYLOAD,2023-09-12 10:03:51,15.69913011,0.0002737,70.0002,288.9121,262.4563,97.6322,-1.0226e-05,-1.441e-05,0.0,0 STARLINK-5324,1 55677U 23021BB  23255.41934436 -.00001441  00000-0 -10226-4 0  9996,2 55677  70.0002 288.9121 0002737 262.4563  97.6322 15.69913011 32975,6737.283,91.725,360.992,357.304,0.0
